{
  "type": "FeatureCollection",
  "features": [
    {
      "type": "Feature",
      "properties": {
        "norad_id": 58654,
        "name": "BEIDOU-3 M28 (C50)",
        "group": "beidou",
        "lat": -46.291729901055085,
        "lon": -65.91885323468625,
        "alt_km": 21527.13894936332,
        "timestamp": "2025-12-20T07:33:51.078575+00:00",
        "meta_object_name": "BEIDOU-3 M28 (C50)",
        "meta_object_id": "2023-207A",
        "meta_epoch": "2025-12-18T08:16:11.764704",
        "meta_mean_motion": 1.86229821,
        "meta_eccentricity": 0.00026501,
        "meta_inclination": 55.5892,
        "meta_ra_of_asc_node": 68.4116,
        "meta_arg_of_pericenter": 272.4264,
        "meta_mean_anomaly": 87.5728,
        "meta_ephemeris_type": 0,
        "meta_classification_type": "U",
        "meta_norad_cat_id": 58654,
        "meta_element_set_no": 999,
        "meta_rev_at_epoch": 1347,
        "meta_bstar": 0,
        "meta_mean_motion_dot": -6.6e-07,
        "meta_mean_motion_ddot": 0,
        "tle_line1": "1 58654U 23207A   25352.34458061 -.00000066  00000+0  00000+0 0  9991",
        "tle_line2": "2 58654  55.5892  68.4116 0002650 272.4264  87.5728  1.86229821 13471"
      },
      "geometry": {
        "type": "Point",
        "coordinates": [
          -65.91885323468625,
          -46.291729901055085
        ]
      }
    },
    {
      "type": "Feature",
      "properties": {
        "norad_id": 58655,
        "name": "BEIDOU-3 M26 (C48)",
        "group": "beidou",
        "lat": 13.85954814388302,
        "lon": 78.0685498618755,
        "alt_km": 21531.86655342226,
        "timestamp": "2025-12-20T07:33:51.078586+00:00",
        "meta_object_name": "BEIDOU-3 M26 (C48)",
        "meta_object_id": "2023-207B",
        "meta_epoch": "2025-12-19T05:11:10.015296",
        "meta_mean_motion": 1.86231346,
        "meta_eccentricity": 0.0004042,
        "meta_inclination": 55.592,
        "meta_ra_of_asc_node": 68.3684,
        "meta_arg_of_pericenter": 258.4158,
        "meta_mean_anomaly": 101.5732,
        "meta_ephemeris_type": 0,
        "meta_classification_type": "U",
        "meta_norad_cat_id": 58655,
        "meta_element_set_no": 999,
        "meta_rev_at_epoch": 1347,
        "meta_bstar": 0,
        "meta_mean_motion_dot": -5.7e-07,
        "meta_mean_motion_ddot": 0,
        "tle_line1": "1 58655U 23207B   25353.21608814 -.00000057  00000+0  00000+0 0  9992",
        "tle_line2": "2 58655  55.5920  68.3684 0004042 258.4158 101.5732  1.86231346 13473"
      },
      "geometry": {
        "type": "Point",
        "coordinates": [
          78.0685498618755,
          13.85954814388302
        ]
      }
    },
    {
      "type": "Feature",
      "properties": {
        "norad_id": 61186,
        "name": "BEIDOU-3 M25 (C47)",
        "group": "beidou",
        "lat": 36.069698116891615,
        "lon": 97.31509681447666,
        "alt_km": 21538.49230348354,
        "timestamp": "2025-12-20T07:33:51.078599+00:00",
        "meta_object_name": "BEIDOU-3 M25 (C47)",
        "meta_object_id": "2024-168B",
        "meta_epoch": "2025-12-19T20:26:35.565792",
        "meta_mean_motion": 1.86230275,
        "meta_eccentricity": 0.00054526,
        "meta_inclination": 54.6358,
        "meta_ra_of_asc_node": 308.4741,
        "meta_arg_of_pericenter": 299.4214,
        "meta_mean_anomaly": 243.6633,
        "meta_ephemeris_type": 0,
        "meta_classification_type": "U",
        "meta_norad_cat_id": 61186,
        "meta_element_set_no": 999,
        "meta_rev_at_epoch": 844,
        "meta_bstar": 0,
        "meta_mean_motion_dot": -7.4e-07,
        "meta_mean_motion_ddot": 0,
        "tle_line1": "1 61186U 24168B   25353.85180053 -.00000074  00000+0  00000+0 0  9991",
        "tle_line2": "2 61186  54.6358 308.4741 0005452 299.4214 243.6633  1.86230275  8446"
      },
      "geometry": {
        "type": "Point",
        "coordinates": [
          97.31509681447666,
          36.069698116891615
        ]
      }
    },
    {
      "type": "Feature",
      "properties": {
        "norad_id": 61187,
        "name": "BEIDOU-3 M27 (C49)",
        "group": "beidou",
        "lat": -54.61829244689346,
        "lon": -143.81825094765568,
        "alt_km": 21531.65262731536,
        "timestamp": "2025-12-20T07:33:51.078612+00:00",
        "meta_object_name": "BEIDOU-3 M27 (C49)",
        "meta_object_id": "2024-168C",
        "meta_epoch": "2025-12-19T13:44:54.698784",
        "meta_mean_motion": 1.8623043,
        "meta_eccentricity": 0.0002515,
        "meta_inclination": 54.6314,
        "meta_ra_of_asc_node": 308.4673,
        "meta_arg_of_pericenter": 339.733,
        "meta_mean_anomaly": 151.2797,
        "meta_ephemeris_type": 0,
        "meta_classification_type": "U",
        "meta_norad_cat_id": 61187,
        "meta_element_set_no": 999,
        "meta_rev_at_epoch": 591,
        "meta_bstar": 0,
        "meta_mean_motion_dot": -7.6e-07,
        "meta_mean_motion_ddot": 0,
        "tle_line1": "1 61187U 24168C   25353.57285531 -.00000076  00000+0  00000+0 0  9990",
        "tle_line2": "2 61187  54.6314 308.4673 0002515 339.7330 151.2797  1.86230430  5914"
      },
      "geometry": {
        "type": "Point",
        "coordinates": [
          -143.81825094765568,
          -54.61829244689346
        ]
      }
    }
  ]
}